FLOCK 3R-11             
1 43725U 18096G   21354.55384016  .00008643  00000+0  26050-3 0  9998
2 43725  97.3764  73.4578 0013463 328.9009  31.1436 15.34475006170754
FLOCK 3R-8              
1 43727U 18096J   21354.79362408  .00009347  00000+0  28158-3 0  9990
2 43727  97.3779  73.9138 0013728 329.4369  30.6073 15.34460314170799
KEPLER-1 (CASE)         
1 43729U 18096L   21354.49449895  .00022771  00000+0  71098-3 0  9992
2 43729  97.3769  72.6450 0015095 336.9375  23.1188 15.33091139170688
GLOBAL-1                
1 43730U 18096M   21354.27958774  .00006708  00000+0  23709-3 0  9999
2 43730  97.3751  70.5910 0017913 343.5018  16.5637 15.29370759170530
LEMUR-2-ORZULAK         
1 43731U 18096N   21354.46539266  .00021888  00000+0  66183-3 0  9991
2 43731  97.3803  73.7249 0016564 332.4843  27.5521 15.34095845170746
LEMUR-2-KOBYSZCZE       
1 43732U 18096P   21354.49426843  .00021099  00000+0  63520-3 0  9997
2 43732  97.3815  74.0788 0016434 330.9746  29.0581 15.34243162170765
FLOCK 3R-4              
1 43733U 18096Q   21354.18154310  .00005057  00000+0  15369-3 0  9995
2 43733  97.3786  73.4048 0016690 333.6309  83.2341 15.34382972170707
FLOCK 3R-3              
1 43734U 18096R   21354.47303420  .00014138  00000+0  42374-3 0  9992
2 43734  97.3790  73.7851 0017493 334.5069  88.0604 15.34452583170759
CICERO 8                
1 43737U 18096U   21354.49452371  .00011668  00000+0  35307-3 0  9990
2 43737  97.3754  74.1270 0017842 333.4792  26.5536 15.34192363170816
INNOSAT-2               
1 43738U 18096V   21354.80182269  .00012461  00000+0  34783-3 0  9991
2 43738  97.3826  76.8483 0018203 326.9822 152.2104 15.36703822170981
FLOCK 3R-6              
1 43741U 18096Y   21354.76360137  .00012207  00000+0  36832-3 0  9997
2 43741  97.3750  73.7839 0013255 331.0040 143.5311 15.34343680170795
FLOCK 3R-7              
1 43742U 18096Z   21354.75568109  .00009210  00000+0  27835-3 0  9999
2 43742  97.3793  73.7860 0014160 331.1598 144.2625 15.34359251170788
REAKTOR HELLO WORLD     
1 43743U 18096AA  21354.46623423  .00009094  00000+0  31390-3 0  9990
2 43743  97.3720  70.5362 0015927 342.1403  17.9275 15.30066281170567
HIBER-1                 
1 43744U 18096AB  21354.45464909  .00019353  00000+0  61167-3 0  9996
2 43744  97.3764  72.2278 0014784 338.1097  21.9512 15.32739138170654
LEMUR-2-DULY            
1 43745U 18096AC  21354.49303165  .00022049  00000+0  66640-3 0  9994
2 43745  97.3807  73.9956 0016571 330.9075  29.1243 15.34108229170773
LEMUR-2-VLADIMIR        
1 43746U 18096AD  21354.50673314  .00023269  00000+0  69061-3 0  9998
2 43746  97.3803  74.2632 0016330 330.5463  29.4859 15.34676062170811
FLOCK 3R-1              
1 43747U 18096AE  21354.77972990  .00010775  00000+0  32387-3 0  9999
2 43747  97.3793  74.1120 0016379 332.0164  28.0197 15.34451572170816
COSMOS 2530             
1 43751U 18097A   21354.48189856  .00000000  00000+0 -72942-4 0  9997
2 43751  82.5133 160.0464 0019575  15.9494 344.2203 12.42866845138684
COSMOS 2531             
1 43752U 18097B   21354.83330724 -.00000006  00000+0 -11260-3 0  9991
2 43752  82.5177 160.2855 0017023  33.1110 327.1031 12.42870221138730
COSMOS 2532             
1 43753U 18097C   21354.78151000 -.00000008  00000+0 -12825-3 0  9994
2 43753  82.5106 159.8518 0018656  35.4440 324.7871 12.42887788138727
MINXSS-2                
1 43758U 18099A   21354.42272396  .00002124  00000+0  19211-3 0  9999
2 43758  97.6488  61.5908 0016390 141.4272 218.8124 14.96388906166328
SIRION PATHFINDER-2     
1 43759U 18099B   21354.51920865  .00001084  00000+0  10223-3 0  9999
2 43759  97.6448  60.8327 0015176 137.2606 222.9799 14.95733405166294
ELYSIUM STAR 2 & LFF    
1 43760U 18099C   21354.53555330  .00004497  00000+0  39610-3 0  9996
2 43760  97.6521  61.9909 0014849 140.2941 219.9370 14.96877845166343
2018-099D               
1 43761U 18099D   21354.83937139 -.00000063  00000+0 -58884-6 0  9995
2 43761  97.6478  61.1704 0015103 142.1855 218.0322 14.95444552166328
STPSAT-5                
1 43762U 18099E   21354.78654436  .00000858  00000+0  80441-4 0  9998
2 43762  97.6482  62.5389 0015048 143.2518 216.9738 14.96470898166404
POLAR SCOUT KODIAK      
1 43764U 18099G   21354.45286242  .00001870  00000+0  16590-3 0  9998
2 43764  97.6499  63.1124 0016469 143.1034 217.1325 14.97288687166418
HAWK-A                  
1 43765U 18099H   21354.50874179  .00000646  00000+0  61754-4 0  9990
2 43765  97.6435  61.8911 0015540 147.5056 212.7126 14.96493318166372
SPAWAR-CAL-O            
1 43766U 18099J   21354.40929916  .00002250  00000+0  20824-3 0  9995
2 43766  97.6441  59.7639 0012323 141.4511 218.7592 14.95453685166227
CORVUS BC4              
1 43767U 18099K   21354.53605647  .00001564  00000+0  14743-3 0  9992
2 43767  97.6416  59.6053 0012713 140.8238 219.3905 14.95150002166234
AISTECHSAT 2            
1 43768U 18099L   21354.77483231  .00000740  00000+0  72526-4 0  9991
2 43768  97.6423  59.8053 0012297 141.4810 218.7291 14.95110757165980
FLOCK 3S-1              
1 43769U 18099M   21354.74726892  .00002009  00000+0  18581-3 0  9992
2 43769  97.6439  60.0926 0015027 147.5245 212.6904 14.95567697166292
FOX-1CLIFF (AO-95)      
1 43770U 18099N   21354.46334495  .00002017  00000+0  18636-3 0  9997
2 43770  97.6455  60.3598 0015255 150.8917 209.3158 14.95603147166257
2018-099P               
1 43771U 18099P   21354.70281673  .00001210  00000+0  11363-3 0  9998
2 43771  97.6464  60.7009 0015100 149.9655 210.2435 14.95692452166285
RANGE-A                 
1 43772U 18099Q   21354.44984886  .00001976  00000+0  18093-3 0  9992
2 43772  97.6551  61.6523 0014905 138.9564 221.2782 14.95990942166263
RANGE-B                 
1 43773U 18099R   21354.75385125  .00001018  00000+0  97038-4 0  9992
2 43773  97.6388  59.7664 0014474 137.1230 223.1123 14.95424602166285
HIBER-2                 
1 43774U 18099S   21354.44679856  .00001955  00000+0  17914-3 0  9990
2 43774  97.6517  61.2776 0013462 141.5036 218.7148 14.95997998166269
2018-099T               
1 43775U 18099T   21354.41306720  .00001438  00000+0  13480-3 0  9995
2 43775  97.6461  60.5014 0015547 142.2566 217.9749 14.95469074166242
SPAWAR-CAL-R            
1 43776U 18099U   21354.45493327  .00000852  00000+0  82247-4 0  9997
2 43776  97.6443  60.3542 0015529 142.9219 217.3078 14.95318752166233
LACMA ENOCH             
1 43777U 18099V   21354.75157085  .06806039  91028-1  25062-1 0  9997
2 43777  97.7083  80.5119 0014187 326.9067  33.1318 15.94430991167268
SPAWAR-CAL-OR           
1 43778U 18099W   21354.46460101  .00002074  00000+0  19119-3 0  9999
2 43778  97.6347  59.1367 0014854 146.1369 214.0803 14.95671115165842
2018-099X               
1 43779U 18099X   21354.43692515  .00000486  00000+0  49046-4 0  9991
2 43779  97.6451  60.4188 0015416 142.6650 217.5645 14.95384045166233
MOVE-II                 
1 43780U 18099Y   21354.14009371  .00002869  00000+0  25790-3 0  9999
2 43780  97.6486  60.8222 0014289 147.6607 212.5494 14.96374317166239
SNUSAT-2                
1 43782U 18099AA  21354.73473678  .00001862  00000+0  17155-3 0  9999
2 43782  97.6456  61.0303 0013806 136.1578 224.0742 14.95824826166312
KAZSTSAT                
1 43783U 18099AB  21354.45774067  .00000715  00000+0  72691-4 0  9998
2 43783  97.6558  59.7095 0009102 139.6643 220.5254 14.93744615166081
SNUGLITE                
1 43784U 18099AC  21354.45874035  .00001863  00000+0  17091-3 0  9992
2 43784  97.6417  60.4402 0015884 144.9441 215.2829 14.95969497166297
ORBWEAVER 2             
1 43785U 18099AD  21354.76594702  .00003615  00000+0  31821-3 0  9991
2 43785  97.6488  61.5613 0014309 131.8569 228.3877 14.97038950165930
ITASAT 1                
1 43786U 18099AE  21354.41492281  .00001886  00000+0  17348-3 0  9999
2 43786  97.6482  61.1194 0016030 143.8589 216.3719 14.95863117166283
KAZSCISAT-1             
1 43787U 18099AF  21354.13457301  .00002666  00000+0  23916-3 0  9998
2 43787  97.6396  59.9858 0015132 141.3850 218.8457 14.96509633166272
EAGLET-I                
1 43790U 18099AJ  21354.74185443  .00001670  00000+0  15306-3 0  9992
2 43790  97.6472  61.9221 0014379 145.8363 214.3787 14.96175818166066
CAPELLA-1               
1 43791U 18099AK  21354.21128569  .00026247  00000+0  19481-2 0  9995
2 43791  97.6932  68.5847 0012789 159.8528 200.3205 15.02958855166547
ESEO                    
1 43792U 18099AL  21354.42558449  .00000492  00000+0  49026-4 0  9997
2 43792  97.6434  61.0435 0014075 143.8607 216.3568 14.95862760166063
CSIM-FD                 
1 43793U 18099AM  21354.46059307  .00002751  00000+0  24331-3 0  9992
2 43793  97.6476  61.8390 0013896 141.2757 218.9463 14.97045003166096
HAWK-B                  
1 43794U 18099AN  21354.50910648  .00000659  00000+0  62913-4 0  9996
2 43794  97.6435  61.8916 0015614 147.6336 212.5847 14.96493619166364
ORBWEAVER 1             
1 43795U 18099AP  21354.45742527  .00004976  00000+0  42850-3 0  9993
2 43795  97.6492  62.5400 0014088 144.3129 215.9037 14.97723100166384
THEA                    
1 43796U 18099AQ  21354.79385687  .00001706  00000+0  15441-3 0  9995
2 43796  97.6471  62.3453 0016073 127.7847 232.4834 14.96623706166396
SKYSAT-C12              
1 43797U 18099AR  21354.41441733  .00008878  00000+0  22141-3 0  9992
2 43797  97.1533  60.5601 0002910  98.0822 262.0755 15.40425071169922
ASTROCAST 0.1           
1 43798U 18099AS  21354.45920735  .00002620  00000+0  23537-3 0  9990
2 43798  97.6475  61.9314 0013422 128.2801 231.9630 14.96487217166331
HAWK-C                  
1 43799U 18099AT  21354.50892381  .00000650  00000+0  62120-4 0  9995
2 43799  97.6434  61.8043 0015491 147.3838 212.8344 14.96493794167119
ICEYE-X2                
1 43800U 18099AU  21354.78270457  .00000191  00000+0  22144-4 0  9994
2 43800  97.6477  61.1631 0014779 138.8039 221.4325 14.95801099166328
